0 PSLV DEB
1 27126U 01049BW  13282.52988638  .00001913  00000-0  23996-3 0   837
2 27126 098.2990 101.1880 0047251 291.5332 099.4571 14.82707522636008
0 PSLV DEB
1 27126U 01049BW  13283.81445729  .00001881  00000-0  23604-3 0   840
2 27126 098.2988 102.5210 0047207 287.2062 116.3463 14.82711046636195
0 PSLV DEB
1 27126U 01049BW  13286.18506122  .00002165  00000-0  27051-3 0   866
2 27126 098.2985 104.9804 0047203 279.6043 170.0277 14.82717225636541
0 PSLV DEB
1 27126U 01049BW  13287.19706073  .00002091  00000-0  26154-3 0   877
2 27126 098.2982 106.0306 0047199 276.2032 172.0034 14.82720814636690
0 PSLV DEB
1 27126U 01049BW  13288.46830346  .00002902  00000-0  35997-3 0   886
2 27126 098.2980 107.3500 0047214 272.0231 117.7336 14.82728083636889
0 PSLV DEB
1 27126U 01049BW  13289.54921983  .00003117  00000-0  38604-3 0   892
2 27126 098.2979 108.4718 0047215 268.4392 127.5827 14.82730883637042
0 PSLV DEB
1 27126U 01049BW  13290.56237178  .00002987  00000-0  37019-3 0   907
2 27126 098.2980 109.5232 0047209 265.1021 135.6957 14.82735800637197
0 PSLV DEB
1 27126U 01049BW  13291.57452398  .00002441  00000-0  30381-3 0   913
2 27126 098.2983 110.5736 0047230 261.7714 138.4838 14.82740873637348
0 PSLV DEB
1 27126U 01049BW  13292.86893299  .00002089  00000-0  26109-3 0   927
2 27126 098.2986 111.9169 0047266 257.5736 207.9019 14.82747567637533
0 PSLV DEB
1 27126U 01049BW  13294.14342182  .00002481  00000-0  30857-3 0   932
2 27126 098.2988 113.2397 0047303 253.3890 171.0735 14.82750380637724
0 PSLV DEB
1 27126U 01049BW  13295.49065896  .00002317  00000-0  28863-3 0   948
2 27126 098.2989 114.6387 0047398 248.8355 162.7097 14.82757738637922
